{
  "type": "FeatureCollection",
  "features": [
    {
      "type": "Feature",
      "geometry": {
        "type": "Point",
        "coordinates": [77.2185, 28.6328]
      },
      "properties": {
        "station_id": "del-rajiv-chowk",
        "name": "Rajiv Chowk",
        "city": "Delhi",
        "line_ids": ["del-yellow", "del-blue"],
        "status": "operational",
        "phase": "I",
        "is_interchange": true,
        "opened_on": "2005-07-03",
        "expected_completion": null,
        "layout": "underground",
        "source": "mock",
        "last_verified": "2026-10-05"
      }
    },
    {
      "type": "Feature",
      "geometry": {
        "type": "Point",
        "coordinates": [77.2285, 28.6675]
      },
      "properties": {
        "station_id": "del-kashmere-gate",
        "name": "Kashmere Gate",
        "city": "Delhi",
        "line_ids": ["del-yellow"],
        "status": "operational",
        "phase": "I",
        "is_interchange": true,
        "opened_on": "2006-11-11",
        "expected_completion": null,
        "layout": "underground",
        "source": "mock",
        "last_verified": "2026-10-05"
      }
    },
    {
      "type": "Feature",
      "geometry": {
        "type": "Point",
        "coordinates": [77.1215, 28.5532]
      },
      "properties": {
        "station_id": "del-aerocity",
        "name": "Delhi Aerocity",
        "city": "Delhi",
        "line_ids": ["del-silver"],
        "status": "construction",
        "phase": "IV",
        "is_interchange": true,
        "opened_on": null,
        "expected_completion": "2026-12",
        "layout": "underground",
        "source": "mock",
        "last_verified": "2026-10-05"
      }
    },
    {
      "type": "Feature",
      "geometry": {
        "type": "Point",
        "coordinates": [77.091, 28.852]
      },
      "properties": {
        "station_id": "del-narela",
        "name": "Narela",
        "city": "Delhi",
        "line_ids": ["del-yellow"],
        "status": "planned",
        "phase": "IV",
        "is_interchange": false,
        "opened_on": null,
        "expected_completion": "2028",
        "layout": "elevated",
        "source": "mock",
        "last_verified": "2026-10-05"
      }
    },
    {
      "type": "Feature",
      "geometry": {
        "type": "Point",
        "coordinates": [77.6068, 12.9756]
      },
      "properties": {
        "station_id": "blr-mg-road",
        "name": "MG Road",
        "city": "Bengaluru",
        "line_ids": ["blr-purple"],
        "status": "operational",
        "phase": "1",
        "is_interchange": false,
        "opened_on": "2011-10-20",
        "expected_completion": null,
        "layout": "elevated",
        "source": "mock",
        "last_verified": "2026-10-05"
      }
    },
    {
      "type": "Feature",
      "geometry": {
        "type": "Point",
        "coordinates": [77.6975, 13.0034]
      },
      "properties": {
        "station_id": "blr-kr-puram",
        "name": "KR Puram",
        "city": "Bengaluru",
        "line_ids": ["blr-purple", "blr-blue"],
        "status": "construction",
        "phase": "2B",
        "is_interchange": true,
        "opened_on": null,
        "expected_completion": "2026-06",
        "layout": "elevated",
        "source": "mock",
        "last_verified": "2026-10-05"
      }
    },
    {
      "type": "Feature",
      "geometry": {
        "type": "Point",
        "coordinates": [77.7052, 13.1986]
      },
      "properties": {
        "station_id": "blr-airport",
        "name": "KIA Airport Terminal",
        "city": "Bengaluru",
        "line_ids": ["blr-blue"],
        "status": "construction",
        "phase": "2B",
        "is_interchange": false,
        "opened_on": null,
        "expected_completion": "2026-06",
        "layout": "elevated",
        "source": "mock",
        "last_verified": "2026-10-05"
      }
    },
    {
      "type": "Feature",
      "geometry": {
        "type": "Point",
        "coordinates": [77.6854, 12.9231]
      },
      "properties": {
        "station_id": "blr-sarjapur",
        "name": "Sarjapur",
        "city": "Bengaluru",
        "line_ids": ["blr-blue"],
        "status": "planned",
        "phase": "3",
        "is_interchange": false,
        "opened_on": null,
        "expected_completion": "2029",
        "layout": "elevated",
        "source": "mock",
        "last_verified": "2026-10-05"
      }
    },
    {
      "type": "Feature",
      "geometry": {
        "type": "Point",
        "coordinates": [72.8212, 19.1314]
      },
      "properties": {
        "station_id": "mum-versova",
        "name": "Versova",
        "city": "Mumbai",
        "line_ids": ["mum-line-1"],
        "status": "operational",
        "phase": "1",
        "is_interchange": false,
        "opened_on": "2014-06-08",
        "expected_completion": null,
        "layout": "elevated",
        "source": "mock",
        "last_verified": "2026-10-05"
      }
    },
    {
      "type": "Feature",
      "geometry": {
        "type": "Point",
        "coordinates": [72.9082, 19.0863]
      },
      "properties": {
        "station_id": "mum-ghatkopar",
        "name": "Ghatkopar",
        "city": "Mumbai",
        "line_ids": ["mum-line-1"],
        "status": "operational",
        "phase": "1",
        "is_interchange": true,
        "opened_on": "2014-06-08",
        "expected_completion": null,
        "layout": "elevated",
        "source": "mock",
        "last_verified": "2026-10-05"
      }
    },
    {
      "type": "Feature",
      "geometry": {
        "type": "Point",
        "coordinates": [72.8643, 19.0664]
      },
      "properties": {
        "station_id": "mum-bkc",
        "name": "Bandra Kurla Complex",
        "city": "Mumbai",
        "line_ids": ["mum-line-3"],
        "status": "construction",
        "phase": "3",
        "is_interchange": true,
        "opened_on": null,
        "expected_completion": "2025-12",
        "layout": "underground",
        "source": "mock",
        "last_verified": "2026-10-05"
      }
    },
    {
      "type": "Feature",
      "geometry": {
        "type": "Point",
        "coordinates": [72.8252, 18.9221]
      },
      "properties": {
        "station_id": "mum-cuffe-parade",
        "name": "Cuffe Parade",
        "city": "Mumbai",
        "line_ids": ["mum-line-3"],
        "status": "construction",
        "phase": "3",
        "is_interchange": false,
        "opened_on": null,
        "expected_completion": "2025-12",
        "layout": "underground",
        "source": "mock",
        "last_verified": "2026-10-05"
      }
    },
    {
      "type": "Feature",
      "geometry": {
        "type": "Point",
        "coordinates": [72.9754, 19.2783]
      },
      "properties": {
        "station_id": "mum-gaimukh",
        "name": "Gaimukh",
        "city": "Mumbai",
        "line_ids": ["mum-line-4"],
        "status": "planned",
        "phase": "4",
        "is_interchange": false,
        "opened_on": null,
        "expected_completion": "2028-12",
        "layout": "elevated",
        "source": "mock",
        "last_verified": "2026-10-05"
      }
    }
  ]
}
